NORAD_CAT_ID,OBJECT_NAME,OBJECT_TYPE,EPOCH,MEAN_MOTION,ECCENTRICITY,INCLINATION,RA_OF_ASC_NODE,ARG_OF_PERICENTER,MEAN_ANOMALY,BSTAR,MEAN_MOTION_DOT,MEAN_MOTION_DDOT,TLE_LINE0,TLE_LINE1,TLE_LINE2,SEMIMAJOR_AXIS,PERIOD,APOGEE,PERIGEE,DECAYED
52464.0,STARLINK-3904,PAYLOAD,2022-09-11 22:00:00,15.08858304,0.0001553,53.2167,21.7969,55.1516,132.4765,-0.0021392,-0.00034189,0.0,0 STARLINK-3904,1 52464U 22049P   22254.91667824 -.00034189  00000-0 -21392-2 0  9992,2 52464  53.2167  21.7969 0001553  55.1516 132.4765 15.08858304  1302,6917.824000000001,95.436,540.764,538.615,0.0
52464.0,STARLINK-3904,PAYLOAD,2022-09-12 12:00:00,15.08868263,0.0001653,53.2171,19.1778,62.728,55.19600000000001,-0.0039203,-0.0006219,0.0,0 STARLINK-3904,1 52464U 22049P   22255.50001157 -.00062190  00000-0 -39203-2 0  9992,2 52464  53.2171  19.1778 0001653  62.7280  55.1960 15.08868263 20044,6917.794,95.436,540.803,538.515,0.0
52464.0,STARLINK-3904,PAYLOAD,2022-09-12 14:00:01,15.08844714,0.0001705,53.217,18.8042,59.9934,150.8396,-0.0018507,-0.00029625,0.0,0 STARLINK-3904,1 52464U 22049P   22255.58334491 -.00029625  00000-0 -18507-2 0  9990,2 52464  53.2170  18.8042 0001705  59.9934 150.8396 15.08844714  1304,6917.866,95.437,540.91,538.5509999999998,0.0
52464.0,STARLINK-3904,PAYLOAD,2022-09-12 22:00:00,15.08861313,0.0001708,53.2171,17.3079,56.6502,165.7722,-0.0020922,-0.00033451,0.0,0 STARLINK-3904,1 52464U 22049P   22255.91667824 -.00033451  00000-0 -20922-2 0  9992,2 52464  53.2171  17.3079 0001708  56.6502 165.7722 15.08861313  1309,6917.815,95.436,540.862,538.499,0.0
52464.0,STARLINK-3904,PAYLOAD,2022-09-13 14:00:01,15.08859906,0.0001682,53.2174,14.3153,55.4155,190.2042,-0.002273,-0.00036301,0.0,0 STARLINK-3904,1 52464U 22049P   22256.58334491 -.00036301  00000-0 -22730-2 0  9993,2 52464  53.2174  14.3153 0001682  55.4155 190.2042 15.08859906  1307,6917.82,95.436,540.8480000000002,538.521,0.0
52464.0,STARLINK-3904,PAYLOAD,2022-09-13 16:00:00,15.08852107,0.0001733999999999,53.2175,13.9413,53.6734,284.8496,-0.0016609,-0.00026633,0.0,0 STARLINK-3904,1 52464U 22049P   22256.66667824 -.00026633  00000-0 -16609-2 0  9996,2 52464  53.2175  13.9413 0001734  53.6734 284.8496 15.08852107 20224,6917.843000000003,95.437,540.908,538.509,0.0
52464.0,STARLINK-3904,PAYLOAD,2022-09-13 22:00:00,15.08849393,0.0001665999999999,53.2174,12.8189,52.4921,204.7192,-0.0038228,-0.00060632,0.0,0 STARLINK-3904,1 52464U 22049P   22256.91667824 -.00060632  00000-0 -38228-2 0  9992,2 52464  53.2174  12.8189 0001666  52.4921 204.7192 15.08849393  1305,6917.852,95.437,540.869,538.564,0.0
52464.0,STARLINK-3904,PAYLOAD,2022-09-14 14:00:01,15.08820507,0.0001749,53.2178,9.8266,55.622,224.7258,-6.090100000000001e-05,-1.257e-05,0.0,0 STARLINK-3904,1 52464U 22049P   22257.58334491 -.00001257  00000-0 -60901-4 0  9990,2 52464  53.2178   9.8266 0001749  55.6220 224.7258 15.08820507  1301,6917.94,95.439,541.015,538.595,0.0
52464.0,STARLINK-3904,PAYLOAD,2022-09-14 22:00:00,15.08858166,0.0001665,53.2177,8.33,52.8142,239.1008,-0.0036402,-0.00057786,0.0,0 STARLINK-3904,1 52464U 22049P   22257.91667824 -.00057786  00000-0 -36402-2 0  9991,2 52464  53.2177   8.3300 0001665  52.8142 239.1008 15.08858166 20410,6917.825,95.436,540.842,538.538,0.0
52464.0,STARLINK-3904,PAYLOAD,2022-09-15 06:00:00,15.08841046,0.0001564999999999,53.2179,6.8323,60.5137,243.0055,0.0015919,0.00025139,0.0,0 STARLINK-3904,1 52464U 22049P   22258.25001157  .00025139  00000-0  15919-2 0  9995,2 52464  53.2179   6.8323 0001565  60.5137 243.0055 15.08841046 20469,6917.877,95.437,540.825,538.66,0.0
52464.0,STARLINK-3904,PAYLOAD,2022-09-15 14:00:01,15.08840487,0.0001657,53.2178,5.3377,52.7215,262.4106,-0.00063024,-0.00010304,0.0,0 STARLINK-3904,1 52464U 22049P   22258.58334491 -.00010304  00000-0 -63024-3 0  9992,2 52464  53.2178   5.3377 0001657  52.7215 262.4106 15.08840487  1305,6917.879,95.438,540.89,538.5980000000002,0.0
52464.0,STARLINK-3904,PAYLOAD,2022-09-15 17:22:42,15.08841823,0.0001806,53.2176,4.705,53.1152,307.0005,5.474800000000001e-05,5.83e-06,0.0,0 STARLINK-3904,1 52464U 22049P   22258.72409784  .00000583  00000-0  54748-4 0  9996,2 52464  53.2176   4.7050 0001806  53.1152 307.0005 15.08841823 20372,6917.875,95.437,540.989,538.49,0.0
52464.0,STARLINK-3904,PAYLOAD,2022-09-15 23:44:15,15.0883244,0.0001683,53.2171,3.5139,50.3725,309.7416,6.718800000000001e-05,7.81e-06,0.0,0 STARLINK-3904,1 52464U 22049P   22258.98906406  .00000781  00000-0  67188-4 0  9999,2 52464  53.2171   3.5139 0001683  50.3725 309.7416 15.08832440 20572,6917.903,95.438,540.933,538.604,0.0
52464.0,STARLINK-3904,PAYLOAD,2022-09-16 10:51:56,15.0883589,0.0001587,53.217,1.4322,50.3815,309.7317,0.00016002,2.259e-05,0.0,0 STARLINK-3904,1 52464U 22049P   22259.45273969  .00002259  00000-0  16002-3 0  9993,2 52464  53.2170   1.4322 0001587  50.3815 309.7317 15.08835890 20487,6917.893,95.438,540.856,538.66,0.0
52464.0,STARLINK-3904,PAYLOAD,2022-09-16 15:38:07,15.08826615,0.0001694,53.2184,0.5417,55.4807,304.6345,8.0872e-05,9.99e-06,0.0,0 STARLINK-3904,1 52464U 22049P   22259.65146995  .00000999  00000-0  80872-4 0  9999,2 52464  53.2184   0.5417 0001694  55.4807 304.6345 15.08826615 20517,6917.920999999999,95.438,540.9580000000002,538.614,0.0
52464.0,STARLINK-3904,PAYLOAD,2022-09-17 05:56:35,15.08825674,0.0001763,53.2193,357.8674,66.8648,293.253,-4.888e-05,-1.066e-05,0.0,0 STARLINK-3904,1 52464U 22049P   22260.24763877 -.00001066  00000-0 -48880-4 0  9991,2 52464  53.2193 357.8674 0001763  66.8648 293.2530 15.08825674 20766,6917.924,95.438,541.009,538.57,0.0
52464.0,STARLINK-3904,PAYLOAD,2022-09-17 12:18:08,15.08829877,0.0001726,53.2193,356.6772,67.4048,292.7126,-9.2965e-05,-1.767e-05,0.0,0 STARLINK-3904,1 52464U 22049P   22260.51260002 -.00001767  00000-0 -92965-4 0  9994,2 52464  53.2193 356.6772 0001726  67.4048 292.7126 15.08829877 20643,6917.911,95.438,540.97,538.582,0.0
52464.0,STARLINK-3904,PAYLOAD,2022-09-17 15:28:54,15.08831803,0.0001742,53.2185,356.0818,59.6914,300.425,-7.1208e-05,-1.421e-05,0.0,0 STARLINK-3904,1 52464U 22049P   22260.64507905 -.00001421  00000-0 -71208-4 0  9998,2 52464  53.2185 356.0818 0001742  59.6914 300.4250 15.08831803 20661,6917.905,95.438,540.976,538.565,0.0
52464.0,STARLINK-3904,PAYLOAD,2022-09-18 12:08:54,15.08849629,0.0001885999999999,53.2186,352.216,60.9084,299.2097,-3.3071e-05,-8.15e-06,0.0,0 STARLINK-3904,1 52464U 22049P   22261.50618936 -.00000815  00000-0 -33071-4 0  9993,2 52464  53.2186 352.2160 0001886  60.9084 299.2097 15.08849629 20795,6917.851,95.437,541.021,538.411,0.0
52464.0,STARLINK-3904,PAYLOAD,2022-09-18 18:30:26,15.08850864,0.0001625,53.2183,351.0264,53.4535,306.6606,0.00010411,1.3699999999999998e-05,0.0,0 STARLINK-3904,1 52464U 22049P   22261.77114339  .00001370  00000-0  10411-3 0  9997,2 52464  53.2183 351.0264 0001625  53.4535 306.6606 15.08850864 20830,6917.847,95.437,540.836,538.5880000000002,0.0
52464.0,STARLINK-3904,PAYLOAD,2022-09-18 23:16:40,15.08697069,0.0002529999999999,53.2185,350.1346,44.0916,316.0278,0.0023883,0.00037778,0.0,0 STARLINK-3904,1 52464U 22049P   22261.96991163  .00037778  00000-0  23883-2 0  9993,2 52464  53.2185 350.1346 0002530  44.0916 316.0278 15.08697069 21026,6918.316999999999,95.447,541.933,538.432,0.0
52464.0,STARLINK-3904,PAYLOAD,2022-09-19 11:59:41,15.088437400000002,0.000161,53.2185,347.7551,57.2856,302.8291,0.00016902,2.403e-05,0.0,0 STARLINK-3904,1 52464U 22049P   22262.49978638  .00002403  00000-0  16902-3 0  9996,2 52464  53.2185 347.7551 0001610  57.2856 302.8291 15.08843740 21109,6917.869000000002,95.437,540.8480000000002,538.62,0.0
52464.0,STARLINK-3904,PAYLOAD,2022-09-19 15:10:28,15.08830759,0.0001676999999999,53.2184,347.1606,57.1768,302.9385,6.2271e-05,7.03e-06,0.0,0 STARLINK-3904,1 52464U 22049P   22262.63227832  .00000703  00000-0  62271-4 0  9997,2 52464  53.2184 347.1606 0001677  57.1768 302.9385 15.08830759 21120,6917.909000000002,95.438,540.934,538.614,0.0
52464.0,STARLINK-3904,PAYLOAD,2022-09-19 23:07:24,15.08838151,0.0001714,53.2184,345.6746,55.649,304.4664,9.0939e-05,1.159e-05,0.0,0 STARLINK-3904,1 52464U 22049P   22262.96347422  .00001159  00000-0  90939-4 0  9999,2 52464  53.2184 345.6746 0001714  55.6490 304.4664 15.08838151 21171,6917.886,95.438,540.937,538.565,0.0
52464.0,STARLINK-3904,PAYLOAD,2022-09-20 11:50:28,15.08851153,0.0001541999999999,53.2179,343.295,58.3776,301.7366,4.0265e-05,3.53e-06,0.0,0 STARLINK-3904,1 52464U 22049P   22263.49338518  .00000353  00000-0  40265-4 0  9996,2 52464  53.2179 343.2950 0001542  58.3776 301.7366 15.08851153 21257,6917.846,95.437,540.778,538.645,0.0
52464.0,STARLINK-3904,PAYLOAD,2022-09-20 16:36:37,15.08852198,0.0001569,53.2178,342.4027,58.0935,302.021,4.9707e-05,5.03e-06,0.0,0 STARLINK-3904,1 52464U 22049P   22263.69210330  .00000503  00000-0  49707-4 0  9996,2 52464  53.2178 342.4027 0001569  58.0935 302.0210 15.08852198 21123,6917.843000000003,95.437,540.794,538.623,0.0
52464.0,STARLINK-3904,PAYLOAD,2022-09-21 14:52:02,15.08837783,0.0001723,53.2181,338.2408,58.1962,301.9197,-4.5912e-05,-1.019e-05,0.0,0 STARLINK-3904,1 52464U 22049P   22264.61947236 -.00001019  00000-0 -45912-4 0  9990,2 52464  53.2181 338.2408 0001723  58.1962 301.9197 15.08837783 21266,6917.887,95.438,540.944,538.56,0.0
52464.0,STARLINK-3904,PAYLOAD,2022-09-22 11:32:02,15.08843748,0.0001598,53.2162,334.3718,53.1579,306.956,6.2826e-05,7.12e-06,0.0,0 STARLINK-3904,1 52464U 22049P   22265.48058542  .00000712  00000-0  62826-4 0  9999,2 52464  53.2162 334.3718 0001598  53.1579 306.9560 15.08843748 21396,6917.869000000002,95.437,540.839,538.628,0.0
52464.0,STARLINK-3904,PAYLOAD,2022-09-22 16:18:12,15.08839791,0.0001718,53.2157,333.4844,52.1235,307.9912,3.298e-05,2.37e-06,0.0,0 STARLINK-3904,1 52464U 22049P   22265.67930926  .00000237  00000-0  32980-4 0  9995,2 52464  53.2157 333.4844 0001718  52.1235 307.9912 15.08839791 21421,6917.880999999999,95.438,540.935,538.558,0.0
